{
  "type": "FeatureCollection",
  "features": [
    {
      "type": "Feature",
      "properties": {
        "norad_id": 40069,
        "name": "METEOR-M 2",
        "group": "weather",
        "lat": 28.90558994258709,
        "lon": 157.7567853022409,
        "alt_km": 815.8835547939789,
        "timestamp": "2025-12-21T18:54:58.135699+00:00",
        "meta_object_name": "METEOR-M 2",
        "meta_object_id": "2014-037A",
        "meta_epoch": "2025-12-21T13:08:28.460832",
        "meta_mean_motion": 14.21389759,
        "meta_eccentricity": 0.00054207,
        "meta_inclination": 98.4905,
        "meta_ra_of_asc_node": 332.7943,
        "meta_arg_of_pericenter": 181.7414,
        "meta_mean_anomaly": 178.3746,
        "meta_ephemeris_type": 0,
        "meta_classification_type": "U",
        "meta_norad_cat_id": 40069,
        "meta_element_set_no": 999,
        "meta_rev_at_epoch": 59408,
        "meta_bstar": 5.3742701e-05,
        "meta_mean_motion_dot": 7.5e-07,
        "meta_mean_motion_ddot": 0,
        "tle_line1": "1 40069U 14037A   25355.54755163  .00000075  00000+0  53743-4 0  9997",
        "tle_line2": "2 40069  98.4905 332.7943 0005420 181.7414 178.3746 14.21389759594085"
      },
      "geometry": {
        "type": "Point",
        "coordinates": [
          157.7567853022409,
          28.90558994258709
        ]
      }
    },
    {
      "type": "Feature",
      "properties": {
        "norad_id": 40267,
        "name": "HIMAWARI-8",
        "group": "weather",
        "lat": 0.021114775977878888,
        "lon": 154.99437516137957,
        "alt_km": 35789.39788740056,
        "timestamp": "2025-12-21T18:54:58.135711+00:00",
        "meta_object_name": "HIMAWARI-8",
        "meta_object_id": "2014-060A",
        "meta_epoch": "2025-12-21T12:57:31.239360",
        "meta_mean_motion": 1.00270596,
        "meta_eccentricity": 8.915e-05,
        "meta_inclination": 0.0387,
        "meta_ra_of_asc_node": 133.414,
        "meta_arg_of_pericenter": 163.4755,
        "meta_mean_anomaly": 128.5136,
        "meta_ephemeris_type": 0,
        "meta_classification_type": "U",
        "meta_norad_cat_id": 40267,
        "meta_element_set_no": 999,
        "meta_rev_at_epoch": 4097,
        "meta_bstar": 0,
        "meta_mean_motion_dot": -2.53e-06,
        "meta_mean_motion_ddot": 0,
        "tle_line1": "1 40267U 14060A   25355.53994490 -.00000253  00000+0  00000+0 0  9992",
        "tle_line2": "2 40267   0.0387 133.4140 0000891 163.4755 128.5136  1.00270596 40970"
      },
      "geometry": {
        "type": "Point",
        "coordinates": [
          154.99437516137957,
          0.021114775977878888
        ]
      }
    },
    {
      "type": "Feature",
      "properties": {
        "norad_id": 40367,
        "name": "FENGYUN 2G",
        "group": "weather",
        "lat": 3.2580174157151904,
        "lon": 113.44702626528817,
        "alt_km": 35799.69424056548,
        "timestamp": "2025-12-21T18:54:58.135723+00:00",
        "meta_object_name": "FENGYUN 2G",
        "meta_object_id": "2014-090A",
        "meta_epoch": "2025-12-21T15:41:33.984384",
        "meta_mean_motion": 1.00260816,
        "meta_eccentricity": 0.000267,
        "meta_inclination": 5.1896,
        "meta_ra_of_asc_node": 74.9957,
        "meta_arg_of_pericenter": 203.7441,
        "meta_mean_anomaly": 146.3563,
        "meta_ephemeris_type": 0,
        "meta_classification_type": "U",
        "meta_norad_cat_id": 40367,
        "meta_element_set_no": 999,
        "meta_rev_at_epoch": 4021,
        "meta_bstar": 0,
        "meta_mean_motion_dot": -2.79e-06,
        "meta_mean_motion_ddot": 0,
        "tle_line1": "1 40367U 14090A   25355.65386556 -.00000279  00000+0  00000+0 0  9995",
        "tle_line2": "2 40367   5.1896  74.9957 0002670 203.7441 146.3563  1.00260816 40217"
      },
      "geometry": {
        "type": "Point",
        "coordinates": [
          113.44702626528817,
          3.2580174157151904
        ]
      }
    },
    {
      "type": "Feature",
      "properties": {
        "norad_id": 40732,
        "name": "METEOSAT-11 (MSG-4)",
        "group": "weather",
        "lat": -2.057006773714159,
        "lon": 23.566619981613925,
        "alt_km": 35790.18681968583,
        "timestamp": "2025-12-21T18:54:58.135735+00:00",
        "meta_object_name": "METEOSAT-11 (MSG-4)",
        "meta_object_id": "2015-034A",
        "meta_epoch": "2025-12-21T02:58:07.934880",
        "meta_mean_motion": 1.00270116,
        "meta_eccentricity": 8.178e-05,
        "meta_inclination": 2.7571,
        "meta_ra_of_asc_node": 71.9801,
        "meta_arg_of_pericenter": 136.5122,
        "meta_mean_anomaly": 295.1851,
        "meta_ephemeris_type": 0,
        "meta_classification_type": "U",
        "meta_norad_cat_id": 40732,
        "meta_element_set_no": 999,
        "meta_rev_at_epoch": 543,
        "meta_bstar": 0,
        "meta_mean_motion_dot": 8.2e-07,
        "meta_mean_motion_ddot": 0,
        "tle_line1": "1 40732U 15034A   25355.12370295  .00000082  00000+0  00000+0 0  9996",
        "tle_line2": "2 40732   2.7571  71.9801 0000817 136.5122 295.1851  1.00270116  5433"
      },
      "geometry": {
        "type": "Point",
        "coordinates": [
          23.566619981613925,
          -2.057006773714159
        ]
      }
    },
    {
      "type": "Feature",
      "properties": {
        "norad_id": 41105,
        "name": "ELEKTRO-L 2",
        "group": "weather",
        "lat": -5.974270412083903,
        "lon": 0.006864438176645333,
        "alt_km": 35783.64181690062,
        "timestamp": "2025-12-21T18:54:58.135747+00:00",
        "meta_object_name": "ELEKTRO-L 2",
        "meta_object_id": "2015-074A",
        "meta_epoch": "2025-12-21T09:42:19.444608",
        "meta_mean_motion": 1.00272503,
        "meta_eccentricity": 0.00034923,
        "meta_inclination": 6.2461,
        "meta_ra_of_asc_node": 72.7254,
        "meta_arg_of_pericenter": 209.0939,
        "meta_mean_anomaly": 299.5117,
        "meta_ephemeris_type": 0,
        "meta_classification_type": "U",
        "meta_norad_cat_id": 41105,
        "meta_element_set_no": 999,
        "meta_rev_at_epoch": 3672,
        "meta_bstar": 0,
        "meta_mean_motion_dot": -9.9e-07,
        "meta_mean_motion_ddot": 0,
        "tle_line1": "1 41105U 15074A   25355.40439172 -.00000099  00000+0  00000+0 0  9995",
        "tle_line2": "2 41105   6.2461  72.7254 0003492 209.0939 299.5117  1.00272503 36721"
      },
      "geometry": {
        "type": "Point",
        "coordinates": [
          0.006864438176645333,
          -5.974270412083903
        ]
      }
    },
    {
      "type": "Feature",
      "properties": {
        "norad_id": 41752,
        "name": "INSAT-3DR",
        "group": "weather",
        "lat": 0.02936384959206886,
        "lon": 88.33509655696533,
        "alt_km": 35846.00124117574,
        "timestamp": "2025-12-21T18:54:58.135759+00:00",
        "meta_object_name": "INSAT-3DR",
        "meta_object_id": "2016-054A",
        "meta_epoch": "2025-12-21T13:33:00.728064",
        "meta_mean_motion": 1.0027156,
        "meta_eccentricity": 0.00141469,
        "meta_inclination": 0.113,
        "meta_ra_of_asc_node": 86.2995,
        "meta_arg_of_pericenter": 185.3676,
        "meta_mean_anomaly": 95.9571,
        "meta_ephemeris_type": 0,
        "meta_classification_type": "U",
        "meta_norad_cat_id": 41752,
        "meta_element_set_no": 999,
        "meta_rev_at_epoch": 3403,
        "meta_bstar": 0,
        "meta_mean_motion_dot": -5.4e-07,
        "meta_mean_motion_ddot": 0,
        "tle_line1": "1 41752U 16054A   25355.56459176 -.00000054  00000+0  00000+0 0  9996",
        "tle_line2": "2 41752   0.1130  86.2995 0014146 185.3676  95.9571  1.00271560 34035"
      },
      "geometry": {
        "type": "Point",
        "coordinates": [
          88.33509655696533,
          0.02936384959206886
        ]
      }
    },
    {
      "type": "Feature",
      "properties": {
        "norad_id": 41836,
        "name": "HIMAWARI-9",
        "group": "weather",
        "lat": 0.025226259426526138,
        "lon": 155.09264453349093,
        "alt_km": 35793.48876860337,
        "timestamp": "2025-12-21T18:54:58.135771+00:00",
        "meta_object_name": "HIMAWARI-9",
        "meta_object_id": "2016-064A",
        "meta_epoch": "2025-12-21T12:57:31.241088",
        "meta_mean_motion": 1.00268672,
        "meta_eccentricity": 0.00015498,
        "meta_inclination": 0.0165,
        "meta_ra_of_asc_node": 17.3484,
        "meta_arg_of_pericenter": 316.3268,
        "meta_mean_anomaly": 91.8221,
        "meta_ephemeris_type": 0,
        "meta_classification_type": "U",
        "meta_norad_cat_id": 41836,
        "meta_element_set_no": 999,
        "meta_rev_at_epoch": 3342,
        "meta_bstar": 0,
        "meta_mean_motion_dot": 0,
        "meta_mean_motion_ddot": 0,
        "tle_line1": "1 41836U 16064A   25355.53994492  .00000000  00000+0  00000+0 0  9992",
        "tle_line2": "2 41836   0.0165  17.3484 0001549 316.3268  91.8221  1.00268672 33428"
      },
      "geometry": {
        "type": "Point",
        "coordinates": [
          155.09264453349093,
          0.025226259426526138
        ]
      }
    }
  ]
}